TDRS 3                  
1 19548U 88091B   25287.04866385 -.00000309  00000+0  00000+0 0  9998
2 19548  12.7903 342.6246 0038844 340.8207  28.0322  1.00276354122920
FLTSATCOM 8 (USA 46)    
1 20253U 89077A   25287.10857306 -.00000377  00000+0  00000+0 0  9993
2 20253  12.4911 352.6282 0005470 239.2283 315.8077  1.00278307258098
SKYNET 4C               
1 20776U 90079A   25286.85085979  .00000116  00000+0  00000+0 0  9997
2 20776  13.4205 351.4854 0004001 231.4105 139.3878  1.00272831128420
TDRS 5                  
1 21639U 91054B   25286.41294642  .00000076  00000+0  00000+0 0  9996
2 21639  14.1024 355.5903 0013248 246.4229 121.3196  1.00276462125247
TDRS 6                  
1 22314U 93003B   25287.04927052 -.00000305  00000+0  00000+0 0  9997
2 22314  14.1781 358.8698 0010546 194.4795 161.3768  1.00277400119934
UFO 2 (USA 95)          
1 22787U 93056A   25286.84003214  .00000115  00000+0  00000+0 0  9999
2 22787  11.8095   4.8701 0004943 231.4410 117.4404  1.00270196116079
USA 99 (MILSTAR-1 1)    
1 22988U 94009A   25287.01537685 -.00000207  00000+0  00000+0 0  9998
2 22988  17.2524  30.3462 0002684 213.1940  54.8426  1.00272819 30484
UFO 4 (USA 108)         
1 23467U 95003A   25286.45039278 -.00000031  00000+0  00000+0 0  9993
2 23467   9.7013  14.0154 0004429 185.5036 157.2968  1.00269447112472
TDRS 7                  
1 23613U 95035B   25286.65983721 -.00000249  00000+0  00000+0 0  9995
2 23613  13.4807 349.8749 0006428 105.3337 253.9383  1.00270825110770
USA 115 (MILSTAR-1 2)   
1 23712U 95060A   25287.24869140 -.00000030  00000+0  00000+0 0  9995
2 23712  13.9837   5.5522 0002183 228.0827 118.9773  1.00274792 30416
INMARSAT 3-F1           
1 23839U 96020A   25287.16029102 -.00000223  00000+0  00000+0 0  9993
2 23839  10.0864  48.8358 0008833 164.2482  22.9410  1.00003945107795
INMARSAT 3-F2           
1 24307U 96053A   25286.99441029  .00000128  00000+0  00000+0 0  9999
2 24307   9.2966  56.3816 0006523 144.0041 217.6771  0.99986344106469
INMARSAT 3-F3           
1 24674U 96070A   25287.25969811 -.00000276  00000+0  00000+0 0  9994
2 24674   9.7847  51.9538 0007912 165.7450 194.7286  0.99985007105446
AMC-3                   
1 24936U 97050A   25287.25822478 -.00000272  00000+0  00000+0 0  9997
2 24936   7.5424  66.8595 0003012 151.1114 186.0598  1.00271516 49965
USA 134                 
1 25019U 97065A   25287.24045157 -.00000073  00000+0  00000+0 0  9995
2 25019  12.4912  23.5162 0003956 237.5351  96.3163  1.00276172 30485
INMARSAT 3-F5           
1 25153U 98006B   25287.26641243 -.00000300  00000+0  00000+0 0  9993
2 25153   9.1417  55.6452 0005021 155.3162 214.0561  1.00273790101435
SKYNET 4E               
1 25639U 99009B   25283.48651311 -.00000037  00000+0  00000+0 0  9990
2 25639  11.9145  10.4458 0002947 203.8073 339.0041  1.00273946 48672
ABS-6                   
1 25924U 99053A   25287.23257133 -.00000133  00000+0  00000+0 0  9994
2 25924   0.0627  84.5350 0002239 169.3067  11.9334  1.00272141 95375
UFO 10 (USA 146)        
1 25967U 99063A   25287.12510419 -.00000198  00000+0  00000+0 0  9990
2 25967   9.8180  28.4580 0005732 205.2296 171.3577  1.00273029 94881
ASIASTAR                
1 26107U 00016A   25287.29323828 -.00000343  00000+0  00000+0 0  9993
2 26107   8.5537  60.7172 0007300 161.5904  11.3703  1.00269840 93451
USA 149 (DSP 20)        
1 26356U 00024A   25282.77004101  .00000097  00000+0  00000+0 0  9991
2 26356  12.9814  13.5918 0002709 227.6921 249.7437  1.00283403 30407
TDRS 8                  
1 26388U 00034A   25286.79975087 -.00000205  00000+0  00000+0 0  9995
2 26388  12.2928  33.3544 0002477 174.6607 187.3933  1.00273017 92710
NSS-11                  
1 26554U 00059A   25287.23595135  .00000012  00000+0  00000+0 0  9994
2 26554   1.4869  84.3007 0003055 124.8749  74.8156  1.00272275 38820
USA 153                 
1 26575U 00065A   25287.24122251 -.00000333  00000+0  00000+0 0  9997
2 26575  11.1993  37.3888 0001594 171.4717  35.4789  1.00275524 30460
AMC-6                   
1 26580U 00067A   25287.31103221  .00000074  00000+0  00000+0 0  9990
2 26580   0.0779  69.1926 0003585 132.8351 158.0153  1.00272565 91420
USA 157 (MILSTAR-2 2)   
1 26715U 01009A   25287.29812891  .00000100  00000+0  00000+0 0  9994
2 26715  11.2718  21.2266 0043840 183.5873 135.6588  1.00277610 30470
INTELSAT 10 (IS-10)     
1 26766U 01019A   25287.06530394  .00000011  00000+0  00000+0 0  9992
2 26766   8.4844  61.7473 0005277 195.3757 184.7199  0.99076501 43141
USA 159 (DSP 21)        
1 26880U 01033A   25287.11999083 -.00000307  00000+0  00000+0 0  9994
2 26880  12.5538  18.1300 0001785 279.1936  79.5647  1.00265860 30493
INTELSAT 902 (IS-902)   
1 26900U 01039A   25281.76807552 -.00000279  00000+0  00000+0 0  9995
2 26900   5.4788  74.8408 0004201 119.7746  49.4647  1.00271851 88177
USA 164 (MILSTAR-2 3)   
1 27168U 02001A   25286.99077027  .00000088  00000+0  00000+0 0  9995
2 27168  10.8852  23.3328 0096119   2.2121  12.9478  1.00269483 30495
INTELSAT 904 (IS-904)   
1 27380U 02007A   25277.70507032 -.00000198  00000+0  00000+0 0  9993
2 27380   6.2753  72.2328 0001108 157.5250  10.1766  1.00265842 49208
DIRECTV 5 (TEMPO 1)     
1 27426U 02023A   25287.32979285 -.00000068  00000+0  00000+0 0  9990
2 27426   4.2465  78.3635 0003592 139.4524 173.9331  1.00271437 85659
INTELSAT 905 (IS-905)   
1 27438U 02027A   25283.03530535  .00000095  00000+0  00000+0 0  9991
2 27438   6.1208  72.7969 0002555 129.1870  52.4588  1.00273403 48855
GALAXY 3C (G-3C)        
1 27445U 02030A   25287.25363142 -.00000165  00000+0  00000+0 0  9998
2 27445   3.1097  81.1167 0001635  75.7005 222.7142  1.00271408 44020
INTELSAT 906 (IS-906)   
1 27513U 02041A   25287.07102396  .00000002  00000+0  00000+0 0  9997
2 27513   5.1737  75.9434 0004150 161.1185 235.5493  1.00273375 84560
NIMIQ 2                 
1 27632U 02062A   25287.33183980 -.00000078  00000+0  00000+0 0  9993
2 27632   8.8753  59.4261 0005956 150.4617 183.5291  1.00272108 41712
USA 167                 
1 27691U 03008A   25286.89141999 -.00000003  00000+0  00000+0 0  9991
2 27691  10.4707  45.5562 0003289 243.1731 292.8030  1.00271953  4305
USA 169 (MILSTAR-2 4)   
1 27711U 03012A   25286.11503288 -.00000205  00000+0  00000+0 0  9991
2 27711  11.9725  31.7894 0094106   7.5240 176.0658  1.00272809 30471
ASIASAT 4               
1 27718U 03014A   25286.87347991 -.00000233  00000+0  00000+0 0  9991
2 27718   4.0709  78.8291 0003802 139.7451 266.1016  1.00269708 42837
HELLAS-SAT 2            
1 27811U 03020A   25287.19903118 -.00000093  00000+0  00000+0 0  9991
2 27811   6.7397  70.8053 0009700 154.5346 219.3576  1.00271290 40380
THURAYA-2               
1 27825U 03026A   25286.92434556  .00000115  00000+0  00000+0 0  9991
2 27825   8.4506  32.9096 0001133 225.6473 140.9645  1.00273612 81881
OPTUS C1                
1 27831U 03028B   25287.23196466 -.00000161  00000+0  00000+0 0  9992
2 27831   6.2708  72.3734 0005999 137.2687  52.6404  1.00270422 50596
USA 170                 
1 27875U 03040A   25287.06313726  .00000118  00000+0  00000+0 0  9996
2 27875   9.9766  50.2204 0001435 181.6130 198.0594  1.00278171 30527
GALAXY 13 (HORIZONS-1)  
1 27954U 03044A   25287.29846479  .00000119  00000+0  00000+0 0  9990
2 27954   0.7779  87.2730 0002152 115.8738 137.4096  1.00271813 44101
YAMAL 202               
1 28089U 03053A   25287.23343801 -.00000090  00000+0  00000+0 0  9994
2 28089   5.7192  73.9179 0006125 145.6119  51.0744  1.00272578 80236
UFO 11 (USA 174)        
1 28117U 03057A   25286.85926650 -.00000114  00000+0  00000+0 0  9993
2 28117   8.7164  34.9531 0004394 181.7164 190.9215  1.00271536 79985
USA 176 (DSP 22)        
1 28158U 04004A   25287.32458917 -.00000169  00000+0  00000+0 0  9990
2 28158  11.7268  27.8236 0003728 225.9551 149.8896  1.00269543 30477
ABS-4 (MOBISAT-1)       
1 28184U 04007A   25287.07041729  .00000028  00000+0  00000+0 0  9996
2 28184   5.4151  74.9943 0005782 138.0459 256.2026  1.00274459 49872
EUTELSAT 7A             
1 28187U 04008A   25287.30766875  .00000092  00000+0  00000+0 0  9993
2 28187   5.2036  74.9249 0001453 173.2209 106.5239  1.00270916 78889
AMC-11                  
1 28252U 04017A   25287.25042473 -.00000064  00000+0  00000+0 0  9991
2 28252   0.0625  63.4287 0003178 151.0215 147.6707  1.00271585 78408
INTELSAT 10-02          
1 28358U 04022A   25287.27226485 -.00000025  00000+0  00000+0 0  9990
2 28358   0.0204  98.9329 0000932 164.4779 216.6896  1.00271410 78094
ANIK F2                 
1 28378U 04027A   25287.25042473 -.00000062  00000+0  00000+0 0  9999
2 28378   2.6477  82.7242 0003213  74.3767 205.0063  1.00271604 38798
AMC-15                  
1 28446U 04041A   25287.25163808 -.00000103  00000+0  00000+0 0  9993
2 28446   0.0617  63.6767 0002429 154.1656 150.7488  1.00271732 76830
NSS-10                  
1 28526U 05003A   25287.26498481 -.00000262  00000+0  00000+0 0  9996
2 28526   5.8355  73.4129 0002976 139.7702 227.8452  1.00271081 50690
XM-3 (RHYTHM)           
1 28626U 05008A   25286.99072528 -.00000213  00000+0  00000+0 0  9997
2 28626   0.0081  76.0708 0000191 135.9000  81.1659  1.00271953 40150
INMARSAT 4-F1           
1 28628U 05009A   25287.16497104  .00000022  00000+0  00000+0 0  9998
2 28628   4.8440  42.4804 0003725 185.9951  32.0035  1.00272219 75206
DIRECTV 8               
1 28659U 05019A   25287.32210208 -.00000013  00000+0  00000+0 0  9990
2 28659   0.0191 234.2814 0003576 351.2776 154.4934  1.00272419 74602
GALAXY 28 (G-28)        
1 28702U 05022A   25286.99628295 -.00000196  00000+0  00000+0 0  9996
2 28702   2.6618  81.9650 0004358 165.1393  45.6648  1.00248641 49519
THAICOM 4               
1 28786U 05028A   25287.01174370 -.00000376  00000+0  00000+0 0  9998
2 28786   0.0519  78.6046 0002626 136.3238 291.6455  1.00271979 49787
